[
  {
    "OBJECT_NAME": "STARLINK-3317",
    "OBJECT_ID": "21125A",
    "EPOCH": "2025-11-11T08:00:03.000384",
    "MEAN_MOTION": 15.60013683,
    "ECCENTRICITY": 0.0001224,
    "INCLINATION": 53.2226,
    "RA_OF_ASC_NODE": 54.388,
    "ARG_OF_PERICENTER": 55.8651,
    "MEAN_ANOMALY": 276.6132,
    "EPHEMERIS_TYPE": 0,
    "CLASSIFICATION_TYPE": "U",
    "NORAD_CAT_ID": 50156,
    "ELEMENT_SET_NO": 999,
    "REV_AT_EPOCH": 569,
    "BSTAR": 0.006142,
    "MEAN_MOTION_DOT": 0.00540774,
    "MEAN_MOTION_DDOT": 0.0,
    "TLE_LINE1": "1 50156U 21125A   25315.33336806  .00540774  00000+0  61420-2 0  9997",
    "TLE_LINE2": "2 50156  53.2226  54.3880 0001224  55.8651 276.6132 15.60013683  5696",
    "COMMENT": "Grouped by shell and plane from TLE"
  },
  {
    "OBJECT_NAME": "STARLINK-30317",
    "OBJECT_ID": "23124N",
    "EPOCH": "2025-11-03T09:42:59.997312",
    "MEAN_MOTION": 15.80307164,
    "ECCENTRICITY": 0.000134,
    "INCLINATION": 53.1347,
    "RA_OF_ASC_NODE": 54.614,
    "ARG_OF_PERICENTER": 63.6883,
    "MEAN_ANOMALY": 296.4277,
    "EPHEMERIS_TYPE": 0,
    "CLASSIFICATION_TYPE": "U",
    "NORAD_CAT_ID": 57675,
    "ELEMENT_SET_NO": 999,
    "REV_AT_EPOCH": 12449,
    "BSTAR": 0.0009567,
    "MEAN_MOTION_DOT": 0.00187337,
    "MEAN_MOTION_DDOT": 0.0,
    "TLE_LINE1": "1 57675U 23124N   25307.40486108  .00187337  00000+0  95670-3 0  9998",
    "TLE_LINE2": "2 57675  53.1347  54.6140 0001340  63.6883 296.4277 15.80307164124499",
    "COMMENT": "Grouped by shell and plane from TLE"
  },
  {
    "OBJECT_NAME": "STARLINK-11181 [DTC]",
    "OBJECT_ID": "24113A",
    "EPOCH": "2025-11-11T06:59:55.186080",
    "MEAN_MOTION": 15.69713219,
    "ECCENTRICITY": 9.38e-05,
    "INCLINATION": 53.1595,
    "RA_OF_ASC_NODE": 55.007,
    "ARG_OF_PERICENTER": 78.5916,
    "MEAN_ANOMALY": 281.5207,
    "EPHEMERIS_TYPE": 0,
    "CLASSIFICATION_TYPE": "U",
    "NORAD_CAT_ID": 60059,
    "ELEMENT_SET_NO": 999,
    "REV_AT_EPOCH": 8096,
    "BSTAR": 6.2415e-06,
    "MEAN_MOTION_DOT": 1.68e-06,
    "MEAN_MOTION_DDOT": 0.0,
    "TLE_LINE1": "1 60059U 24113A   25315.29161095  .00000168  00000+0  62415-5 0  9997",
    "TLE_LINE2": "2 60059  53.1595  55.0070 0000938  78.5916 281.5207 15.69713219 80965",
    "COMMENT": "Grouped by shell and plane from TLE"
  },
  {
    "OBJECT_NAME": "STARLINK-11176 [DTC]",
    "OBJECT_ID": "24113B",
    "EPOCH": "2025-11-11T06:52:51.741408",
    "MEAN_MOTION": 15.69724758,
    "ECCENTRICITY": 8.69e-05,
    "INCLINATION": 53.1574,
    "RA_OF_ASC_NODE": 54.9734,
    "ARG_OF_PERICENTER": 45.4927,
    "MEAN_ANOMALY": 314.6162,
    "EPHEMERIS_TYPE": 0,
    "CLASSIFICATION_TYPE": "U",
    "NORAD_CAT_ID": 60060,
    "ELEMENT_SET_NO": 999,
    "REV_AT_EPOCH": 8096,
    "BSTAR": 6.305500000000001e-05,
    "MEAN_MOTION_DOT": 7.062e-05,
    "MEAN_MOTION_DDOT": 0.0,
    "TLE_LINE1": "1 60060U 24113B   25315.28670997  .00007062  00000+0  63055-4 0  9994",
    "TLE_LINE2": "2 60060  53.1574  54.9734 0000869  45.4927 314.6162 15.69724758 80965",
    "COMMENT": "Grouped by shell and plane from TLE"
  },
  {
    "OBJECT_NAME": "STARLINK-11167 [DTC]",
    "OBJECT_ID": "24113C",
    "EPOCH": "2025-11-11T06:45:47.614176",
    "MEAN_MOTION": 15.69728768,
    "ECCENTRICITY": 0.0001221,
    "INCLINATION": 53.1608,
    "RA_OF_ASC_NODE": 54.9422,
    "ARG_OF_PERICENTER": 101.2071,
    "MEAN_ANOMALY": 258.9084,
    "EPHEMERIS_TYPE": 0,
    "CLASSIFICATION_TYPE": "U",
    "NORAD_CAT_ID": 60061,
    "ELEMENT_SET_NO": 999,
    "REV_AT_EPOCH": 8126,
    "BSTAR": 1.3836000000000001e-05,
    "MEAN_MOTION_DOT": 1.089e-05,
    "MEAN_MOTION_DDOT": 0.0,
    "TLE_LINE1": "1 60061U 24113C   25315.28180109  .00001089  00000+0  13836-4 0  9991",
    "TLE_LINE2": "2 60061  53.1608  54.9422 0001221 101.2071 258.9084 15.69728768 81264",
    "COMMENT": "Grouped by shell and plane from TLE"
  },
  {
    "OBJECT_NAME": "STARLINK-11166 [DTC]",
    "OBJECT_ID": "24113D",
    "EPOCH": "2025-11-11T06:38:44.483136",
    "MEAN_MOTION": 15.69785638,
    "ECCENTRICITY": 8.89e-05,
    "INCLINATION": 53.1629,
    "RA_OF_ASC_NODE": 54.9099,
    "ARG_OF_PERICENTER": 35.519,
    "MEAN_ANOMALY": 324.5887,
    "EPHEMERIS_TYPE": 0,
    "CLASSIFICATION_TYPE": "U",
    "NORAD_CAT_ID": 60062,
    "ELEMENT_SET_NO": 999,
    "REV_AT_EPOCH": 8096,
    "BSTAR": 0.0,
    "MEAN_MOTION_DOT": -0.00013615,
    "MEAN_MOTION_DDOT": 0.0,
    "TLE_LINE1": "1 60062U 24113D   25315.27690374 -.00013615  00000+0 -10736-3 0  9996",
    "TLE_LINE2": "2 60062  53.1629  54.9099 0000889  35.5190 324.5887 15.69785638 80964",
    "COMMENT": "Grouped by shell and plane from TLE"
  },
  {
    "OBJECT_NAME": "STARLINK-11165 [DTC]",
    "OBJECT_ID": "24113E",
    "EPOCH": "2025-11-11T06:31:41.255328",
    "MEAN_MOTION": 15.69697138,
    "ECCENTRICITY": 0.0001989,
    "INCLINATION": 53.1571,
    "RA_OF_ASC_NODE": 54.8755,
    "ARG_OF_PERICENTER": 75.8663,
    "MEAN_ANOMALY": 284.2576,
    "EPHEMERIS_TYPE": 0,
    "CLASSIFICATION_TYPE": "U",
    "NORAD_CAT_ID": 60063,
    "ELEMENT_SET_NO": 999,
    "REV_AT_EPOCH": 8096,
    "BSTAR": 3.0834e-05,
    "MEAN_MOTION_DOT": 3.145e-05,
    "MEAN_MOTION_DDOT": 0.0,
    "TLE_LINE1": "1 60063U 24113E   25315.27200527  .00003145  00000+0  30834-4 0  9991",
    "TLE_LINE2": "2 60063  53.1571  54.8755 0001989  75.8663 284.2576 15.69697138 80967",
    "COMMENT": "Grouped by shell and plane from TLE"
  },
  {
    "OBJECT_NAME": "STARLINK-11169 [DTC]",
    "OBJECT_ID": "24113F",
    "EPOCH": "2025-11-11T06:24:35.431200",
    "MEAN_MOTION": 15.69747536,
    "ECCENTRICITY": 8.92e-05,
    "INCLINATION": 53.1572,
    "RA_OF_ASC_NODE": 54.843,
    "ARG_OF_PERICENTER": 72.3859,
    "MEAN_ANOMALY": 287.7256,
    "EPHEMERIS_TYPE": 0,
    "CLASSIFICATION_TYPE": "U",
    "NORAD_CAT_ID": 60064,
    "ELEMENT_SET_NO": 999,
    "REV_AT_EPOCH": 8096,
    "BSTAR": 0.0,
    "MEAN_MOTION_DOT": -7.275e-05,
    "MEAN_MOTION_DDOT": 0.0,
    "TLE_LINE1": "1 60064U 24113F   25315.26707675 -.00007275  00000+0 -55156-4 0  9991",
    "TLE_LINE2": "2 60064  53.1572  54.8430 0000892  72.3859 287.7256 15.69747536 80961",
    "COMMENT": "Grouped by shell and plane from TLE"
  },
  {
    "OBJECT_NAME": "STARLINK-11102 [DTC]",
    "OBJECT_ID": "24113G",
    "EPOCH": "2025-11-11T06:17:33.916704",
    "MEAN_MOTION": 15.69644124,
    "ECCENTRICITY": 0.0001427,
    "INCLINATION": 53.1575,
    "RA_OF_ASC_NODE": 54.8099,
    "ARG_OF_PERICENTER": 78.6683,
    "MEAN_ANOMALY": 281.4495,
    "EPHEMERIS_TYPE": 0,
    "CLASSIFICATION_TYPE": "U",
    "NORAD_CAT_ID": 60065,
    "ELEMENT_SET_NO": 999,
    "REV_AT_EPOCH": 8096,
    "BSTAR": 0.00012433,
    "MEAN_MOTION_DOT": 0.00014459,
    "MEAN_MOTION_DDOT": 0.0,
    "TLE_LINE1": "1 60065U 24113G   25315.26219811  .00014459  00000+0  12433-3 0  9992",
    "TLE_LINE2": "2 60065  53.1575  54.8099 0001427  78.6683 281.4495 15.69644124 80960",
    "COMMENT": "Grouped by shell and plane from TLE"
  },
  {
    "OBJECT_NAME": "STARLINK-11141 [DTC]",
    "OBJECT_ID": "24113H",
    "EPOCH": "2025-11-11T08:00:03.000384",
    "MEAN_MOTION": 15.69653303,
    "ECCENTRICITY": 0.0001201,
    "INCLINATION": 53.1565,
    "RA_OF_ASC_NODE": 54.402,
    "ARG_OF_PERICENTER": 98.4153,
    "MEAN_ANOMALY": 331.9391,
    "EPHEMERIS_TYPE": 0,
    "CLASSIFICATION_TYPE": "U",
    "NORAD_CAT_ID": 60066,
    "ELEMENT_SET_NO": 999,
    "REV_AT_EPOCH": 584,
    "BSTAR": 0.00099702,
    "MEAN_MOTION_DOT": 0.00121697,
    "MEAN_MOTION_DDOT": 0.0,
    "TLE_LINE1": "1 60066U 24113H   25315.33336806  .00121697  00000+0  99702-3 0  9992",
    "TLE_LINE2": "2 60066  53.1565  54.4020 0001201  98.4153 331.9391 15.69653303  5841",
    "COMMENT": "Grouped by shell and plane from TLE"
  },
  {
    "OBJECT_NAME": "STARLINK-11153 [DTC]",
    "OBJECT_ID": "24113J",
    "EPOCH": "2025-11-11T07:35:14.175456",
    "MEAN_MOTION": 15.69716725,
    "ECCENTRICITY": 8.92e-05,
    "INCLINATION": 53.1584,
    "RA_OF_ASC_NODE": 55.1655,
    "ARG_OF_PERICENTER": 107.2617,
    "MEAN_ANOMALY": 252.8498,
    "EPHEMERIS_TYPE": 0,
    "CLASSIFICATION_TYPE": "U",
    "NORAD_CAT_ID": 60067,
    "ELEMENT_SET_NO": 999,
    "REV_AT_EPOCH": 8096,
    "BSTAR": 1.7981e-05,
    "MEAN_MOTION_DOT": 1.591e-05,
    "MEAN_MOTION_DDOT": 0.0,
    "TLE_LINE1": "1 60067U 24113J   25315.31613629  .00001591  00000+0  17981-4 0  9992",
    "TLE_LINE2": "2 60067  53.1584  55.1655 0000892 107.2617 252.8498 15.69716725 80967",
    "COMMENT": "Grouped by shell and plane from TLE"
  },
  {
    "OBJECT_NAME": "STARLINK-11170 [DTC]",
    "OBJECT_ID": "24113K",
    "EPOCH": "2025-11-11T07:28:11.040960",
    "MEAN_MOTION": 15.6970241,
    "ECCENTRICITY": 0.0001248,
    "INCLINATION": 53.1599,
    "RA_OF_ASC_NODE": 55.1312,
    "ARG_OF_PERICENTER": 96.7637,
    "MEAN_ANOMALY": 263.3523,
    "EPHEMERIS_TYPE": 0,
    "CLASSIFICATION_TYPE": "U",
    "NORAD_CAT_ID": 60068,
    "ELEMENT_SET_NO": 999,
    "REV_AT_EPOCH": 8096,
    "BSTAR": 1.9214000000000003e-05,
    "MEAN_MOTION_DOT": 1.739e-05,
    "MEAN_MOTION_DDOT": 0.0,
    "TLE_LINE1": "1 60068U 24113K   25315.31123890  .00001739  00000+0  19214-4 0  9994",
    "TLE_LINE2": "2 60068  53.1599  55.1312 0001248  96.7637 263.3523 15.69702410 80966",
    "COMMENT": "Grouped by shell and plane from TLE"
  },
  {
    "OBJECT_NAME": "STARLINK-11171 [DTC]",
    "OBJECT_ID": "24113L",
    "EPOCH": "2025-11-11T07:21:06.988032",
    "MEAN_MOTION": 15.69713357,
    "ECCENTRICITY": 0.0001146,
    "INCLINATION": 53.1607,
    "RA_OF_ASC_NODE": 55.1002,
    "ARG_OF_PERICENTER": 107.6331,
    "MEAN_ANOMALY": 252.4813,
    "EPHEMERIS_TYPE": 0,
    "CLASSIFICATION_TYPE": "U",
    "NORAD_CAT_ID": 60069,
    "ELEMENT_SET_NO": 999,
    "REV_AT_EPOCH": 8096,
    "BSTAR": 3.0366e-05,
    "MEAN_MOTION_DOT": 3.092e-05,
    "MEAN_MOTION_DDOT": 0.0,
    "TLE_LINE1": "1 60069U 24113L   25315.30633088  .00003092  00000+0  30366-4 0  9994",
    "TLE_LINE2": "2 60069  53.1607  55.1002 0001146 107.6331 252.4813 15.69713357 80966",
    "COMMENT": "Grouped by shell and plane from TLE"
  }
]